<?xml version="1.0" encoding="UTF-8"?>
<ndm xmlns:xsi="http://www.w3.org/2001/XMLSchema-instance" xsi:noNamespaceSchemaLocation="https://sanaregistry.org/r/ndmxml_unqualified/ndmxml-2.0.0-master-2.0.xsd">
<omm id="CCSDS_OMM_VERS" version="2.0">
<header><CREATION_DATE/><ORIGINATOR/></header><body><segment><metadata><OBJECT_NAME>KUIPER-00079</OBJECT_NAME><OBJECT_ID>2025-151L</OBJECT_ID><CENTER_NAME>EARTH</CENTER_NAME><REF_FRAME>TEME</REF_FRAME><TIME_SYSTEM>UTC</TIME_SYSTEM><MEAN_ELEMENT_THEORY>SGP4</MEAN_ELEMENT_THEORY></metadata><data><meanElements><EPOCH>2025-12-19T06:20:45.432672</EPOCH><MEAN_MOTION>14.79889859</MEAN_MOTION><ECCENTRICITY>.00117352</ECCENTRICITY><INCLINATION>51.8999</INCLINATION><RA_OF_ASC_NODE>296.2095</RA_OF_ASC_NODE><ARG_OF_PERICENTER>336.7092</ARG_OF_PERICENTER><MEAN_ANOMALY>23.3337</MEAN_ANOMALY></meanElements><tleParameters><EPHEMERIS_TYPE>0</EPHEMERIS_TYPE><CLASSIFICATION_TYPE>U</CLASSIFICATION_TYPE><NORAD_CAT_ID>64826</NORAD_CAT_ID><ELEMENT_SET_NO>999</ELEMENT_SET_NO><REV_AT_EPOCH>2459</REV_AT_EPOCH><BSTAR>.49471758E-3</BSTAR><MEAN_MOTION_DOT>.355E-4</MEAN_MOTION_DOT><MEAN_MOTION_DDOT>0</MEAN_MOTION_DDOT></tleParameters></data></segment></body></omm>
<omm id="CCSDS_OMM_VERS" version="2.0">
<header><CREATION_DATE/><ORIGINATOR/></header><body><segment><metadata><OBJECT_NAME>KUIPER-00080</OBJECT_NAME><OBJECT_ID>2025-151M</OBJECT_ID><CENTER_NAME>EARTH</CENTER_NAME><REF_FRAME>TEME</REF_FRAME><TIME_SYSTEM>UTC</TIME_SYSTEM><MEAN_ELEMENT_THEORY>SGP4</MEAN_ELEMENT_THEORY></metadata><data><meanElements><EPOCH>2025-12-19T05:32:12.978528</EPOCH><MEAN_MOTION>14.79954859</MEAN_MOTION><ECCENTRICITY>.00060317</ECCENTRICITY><INCLINATION>51.9016</INCLINATION><RA_OF_ASC_NODE>296.3633</RA_OF_ASC_NODE><ARG_OF_PERICENTER>355.4419</ARG_OF_PERICENTER><MEAN_ANOMALY>4.6488</MEAN_ANOMALY></meanElements><tleParameters><EPHEMERIS_TYPE>0</EPHEMERIS_TYPE><CLASSIFICATION_TYPE>U</CLASSIFICATION_TYPE><NORAD_CAT_ID>64827</NORAD_CAT_ID><ELEMENT_SET_NO>999</ELEMENT_SET_NO><REV_AT_EPOCH>2339</REV_AT_EPOCH><BSTAR>.16685314E-2</BSTAR><MEAN_MOTION_DOT>.12531E-3</MEAN_MOTION_DOT><MEAN_MOTION_DDOT>0</MEAN_MOTION_DDOT></tleParameters></data></segment></body></omm>
<omm id="CCSDS_OMM_VERS" version="2.0">
<header><CREATION_DATE/><ORIGINATOR/></header><body><segment><metadata><OBJECT_NAME>KUIPER-00082</OBJECT_NAME><OBJECT_ID>2025-151N</OBJECT_ID><CENTER_NAME>EARTH</CENTER_NAME><REF_FRAME>TEME</REF_FRAME><TIME_SYSTEM>UTC</TIME_SYSTEM><MEAN_ELEMENT_THEORY>SGP4</MEAN_ELEMENT_THEORY></metadata><data><meanElements><EPOCH>2025-12-19T05:02:52.360800</EPOCH><MEAN_MOTION>14.79944353</MEAN_MOTION><ECCENTRICITY>.00053734</ECCENTRICITY><INCLINATION>51.9022</INCLINATION><RA_OF_ASC_NODE>283.9688</RA_OF_ASC_NODE><ARG_OF_PERICENTER>24.7091</ARG_OF_PERICENTER><MEAN_ANOMALY>335.4128</MEAN_ANOMALY></meanElements><tleParameters><EPHEMERIS_TYPE>0</EPHEMERIS_TYPE><CLASSIFICATION_TYPE>U</CLASSIFICATION_TYPE><NORAD_CAT_ID>64828</NORAD_CAT_ID><ELEMENT_SET_NO>999</ELEMENT_SET_NO><REV_AT_EPOCH>2356</REV_AT_EPOCH><BSTAR>.53694783E-3</BSTAR><MEAN_MOTION_DOT>.3875E-4</MEAN_MOTION_DOT><MEAN_MOTION_DDOT>0</MEAN_MOTION_DDOT></tleParameters></data></segment></body></omm>
<omm id="CCSDS_OMM_VERS" version="2.0">
<header><CREATION_DATE/><ORIGINATOR/></header><body><segment><metadata><OBJECT_NAME>KUIPER-00083</OBJECT_NAME><OBJECT_ID>2025-151P</OBJECT_ID><CENTER_NAME>EARTH</CENTER_NAME><REF_FRAME>TEME</REF_FRAME><TIME_SYSTEM>UTC</TIME_SYSTEM><MEAN_ELEMENT_THEORY>SGP4</MEAN_ELEMENT_THEORY></metadata><data><meanElements><EPOCH>2025-12-19T03:13:55.499232</EPOCH><MEAN_MOTION>14.79971607</MEAN_MOTION><ECCENTRICITY>.00113359</ECCENTRICITY><INCLINATION>51.9016</INCLINATION><RA_OF_ASC_NODE>291.7962</RA_OF_ASC_NODE><ARG_OF_PERICENTER>336.1169</ARG_OF_PERICENTER><MEAN_ANOMALY>23.9266</MEAN_ANOMALY></meanElements><tleParameters><EPHEMERIS_TYPE>0</EPHEMERIS_TYPE><CLASSIFICATION_TYPE>U</CLASSIFICATION_TYPE><NORAD_CAT_ID>64829</NORAD_CAT_ID><ELEMENT_SET_NO>999</ELEMENT_SET_NO><REV_AT_EPOCH>2463</REV_AT_EPOCH><BSTAR>.39916785E-3</BSTAR><MEAN_MOTION_DOT>.2826E-4</MEAN_MOTION_DOT><MEAN_MOTION_DDOT>0</MEAN_MOTION_DDOT></tleParameters></data></segment></body></omm>
<omm id="CCSDS_OMM_VERS" version="2.0">
<header><CREATION_DATE/><ORIGINATOR/></header><body><segment><metadata><OBJECT_NAME>KUIPER-00084</OBJECT_NAME><OBJECT_ID>2025-151Q</OBJECT_ID><CENTER_NAME>EARTH</CENTER_NAME><REF_FRAME>TEME</REF_FRAME><TIME_SYSTEM>UTC</TIME_SYSTEM><MEAN_ELEMENT_THEORY>SGP4</MEAN_ELEMENT_THEORY></metadata><data><meanElements><EPOCH>2025-12-19T01:20:21.817248</EPOCH><MEAN_MOTION>14.80039678</MEAN_MOTION><ECCENTRICITY>.0011806</ECCENTRICITY><INCLINATION>51.9015</INCLINATION><RA_OF_ASC_NODE>302.1265</RA_OF_ASC_NODE><ARG_OF_PERICENTER>310.3511</ARG_OF_PERICENTER><MEAN_ANOMALY>49.6419</MEAN_ANOMALY></meanElements><tleParameters><EPHEMERIS_TYPE>0</EPHEMERIS_TYPE><CLASSIFICATION_TYPE>U</CLASSIFICATION_TYPE><NORAD_CAT_ID>64830</NORAD_CAT_ID><ELEMENT_SET_NO>999</ELEMENT_SET_NO><REV_AT_EPOCH>2329</REV_AT_EPOCH><BSTAR>.39063541E-3</BSTAR><MEAN_MOTION_DOT>.2766E-4</MEAN_MOTION_DOT><MEAN_MOTION_DDOT>0</MEAN_MOTION_DDOT></tleParameters></data></segment></body></omm>
<omm id="CCSDS_OMM_VERS" version="2.0">
<header><CREATION_DATE/><ORIGINATOR/></header><body><segment><metadata><OBJECT_NAME>KUIPER-00085</OBJECT_NAME><OBJECT_ID>2025-151R</OBJECT_ID><CENTER_NAME>EARTH</CENTER_NAME><REF_FRAME>TEME</REF_FRAME><TIME_SYSTEM>UTC</TIME_SYSTEM><MEAN_ELEMENT_THEORY>SGP4</MEAN_ELEMENT_THEORY></metadata><data><meanElements><EPOCH>2025-12-19T04:14:19.370112</EPOCH><MEAN_MOTION>14.79880564</MEAN_MOTION><ECCENTRICITY>.00077955</ECCENTRICITY><INCLINATION>51.9047</INCLINATION><RA_OF_ASC_NODE>284.1330</RA_OF_ASC_NODE><ARG_OF_PERICENTER>355.2688</ARG_OF_PERICENTER><MEAN_ANOMALY>4.8200</MEAN_ANOMALY></meanElements><tleParameters><EPHEMERIS_TYPE>0</EPHEMERIS_TYPE><CLASSIFICATION_TYPE>U</CLASSIFICATION_TYPE><NORAD_CAT_ID>64831</NORAD_CAT_ID><ELEMENT_SET_NO>999</ELEMENT_SET_NO><REV_AT_EPOCH>2355</REV_AT_EPOCH><BSTAR>-.12137449E-2</BSTAR><MEAN_MOTION_DOT>-.9456E-4</MEAN_MOTION_DOT><MEAN_MOTION_DDOT>0</MEAN_MOTION_DDOT></tleParameters></data></segment></body></omm>
<omm id="CCSDS_OMM_VERS" version="2.0">
<header><CREATION_DATE/><ORIGINATOR/></header><body><segment><metadata><OBJECT_NAME>KUIPER-00086</OBJECT_NAME><OBJECT_ID>2025-151S</OBJECT_ID><CENTER_NAME>EARTH</CENTER_NAME><REF_FRAME>TEME</REF_FRAME><TIME_SYSTEM>UTC</TIME_SYSTEM><MEAN_ELEMENT_THEORY>SGP4</MEAN_ELEMENT_THEORY></metadata><data><meanElements><EPOCH>2025-12-19T05:36:00.158688</EPOCH><MEAN_MOTION>14.79924931</MEAN_MOTION><ECCENTRICITY>.00108046</ECCENTRICITY><INCLINATION>51.9015</INCLINATION><RA_OF_ASC_NODE>293.8690</RA_OF_ASC_NODE><ARG_OF_PERICENTER>336.1053</ARG_OF_PERICENTER><MEAN_ANOMALY>23.9406</MEAN_ANOMALY></meanElements><tleParameters><EPHEMERIS_TYPE>0</EPHEMERIS_TYPE><CLASSIFICATION_TYPE>U</CLASSIFICATION_TYPE><NORAD_CAT_ID>64832</NORAD_CAT_ID><ELEMENT_SET_NO>999</ELEMENT_SET_NO><REV_AT_EPOCH>2342</REV_AT_EPOCH><BSTAR>.54746891E-3</BSTAR><MEAN_MOTION_DOT>.3955E-4</MEAN_MOTION_DOT><MEAN_MOTION_DDOT>0</MEAN_MOTION_DDOT></tleParameters></data></segment></body></omm>
<omm id="CCSDS_OMM_VERS" version="2.0">
<header><CREATION_DATE/><ORIGINATOR/></header><body><segment><metadata><OBJECT_NAME>KUIPER-00087</OBJECT_NAME><OBJECT_ID>2025-151T</OBJECT_ID><CENTER_NAME>EARTH</CENTER_NAME><REF_FRAME>TEME</REF_FRAME><TIME_SYSTEM>UTC</TIME_SYSTEM><MEAN_ELEMENT_THEORY>SGP4</MEAN_ELEMENT_THEORY></metadata><data><meanElements><EPOCH>2025-12-18T12:12:12.307392</EPOCH><MEAN_MOTION>14.80075025</MEAN_MOTION><ECCENTRICITY>.00012212</ECCENTRICITY><INCLINATION>51.8999</INCLINATION><RA_OF_ASC_NODE>279.5567</RA_OF_ASC_NODE><ARG_OF_PERICENTER>40.5930</ARG_OF_PERICENTER><MEAN_ANOMALY>319.5123</MEAN_ANOMALY></meanElements><tleParameters><EPHEMERIS_TYPE>0</EPHEMERIS_TYPE><CLASSIFICATION_TYPE>U</CLASSIFICATION_TYPE><NORAD_CAT_ID>64833</NORAD_CAT_ID><ELEMENT_SET_NO>999</ELEMENT_SET_NO><REV_AT_EPOCH>2355</REV_AT_EPOCH><BSTAR>.35612179E-3</BSTAR><MEAN_MOTION_DOT>.2503E-4</MEAN_MOTION_DOT><MEAN_MOTION_DDOT>0</MEAN_MOTION_DDOT></tleParameters></data></segment></body></omm>

</ndm>
