KUIPER-00079            
1 64826U 25151L   25353.26441473  .00003550  00000+0  49472-3 0  9990
2 64826  51.8999 296.2095 0011735 336.7092  23.3337 14.79889859 24598
KUIPER-00080            
1 64827U 25151M   25353.23070577  .00012531  00000+0  16685-2 0  9999
2 64827  51.9016 296.3633 0006031 355.4419   4.6488 14.79954859 23392
KUIPER-00082            
1 64828U 25151N   25353.21032825  .00003875  00000+0  53695-3 0  9996
2 64828  51.9022 283.9688 0005373  24.7091 335.4128 14.79944353 23565
KUIPER-00083            
1 64829U 25151P   25353.13467013  .00002826  00000+0  39917-3 0  9995
2 64829  51.9016 291.7962 0011335 336.1169  23.9266 14.79971607 24635
KUIPER-00084            
1 64830U 25151Q   25353.05580807  .00002766  00000+0  39064-3 0  9991
2 64830  51.9015 302.1265 0011806 310.3511  49.6419 14.80039678 23298
KUIPER-00085            
1 64831U 25151R   25353.17661308 -.00009456  00000+0 -12137-2 0  9997
2 64831  51.9047 284.1330 0007795 355.2688   4.8200 14.79880564 23557
KUIPER-00086            
1 64832U 25151S   25353.23333517  .00003955  00000+0  54747-3 0  9993
2 64832  51.9015 293.8690 0010804 336.1053  23.9406 14.79924931 23421
KUIPER-00087            
1 64833U 25151T   25352.50847578  .00002503  00000+0  35612-3 0  9998
2 64833  51.8999 279.5567 0001221  40.5930 319.5123 14.80075025 23556
